[
    {
        "Altitude(m)": 559724.7101595617,
        "Argument of Periapsis(deg)": 0.0,
        "Eccentricity": 0.0,
        "Inclination(deg)": 53.0,
        "Latitude(deg)": 52.383268134082094,
        "Longitude(deg)": 6.579263329758442,
        "Mean Anomaly(deg)": 81.8182,
        "RAAN(deg)": 30.0,
        "Satellite Name": "Starlink Shell 1 137",
        "Satellite Number": 137,
        "Semi-Major Axis(m)": 6931778.249405717,
        "Time(s)": 0
    },
    {
        "Altitude(m)": 559750.3362801359,
        "Argument of Periapsis(deg)": 0.00034857847951123687,
        "Eccentricity": 0.0,
        "Inclination(deg)": 53.0,
        "Latitude(deg)": 52.49546185118036,
        "Longitude(deg)": 7.546884868760316,
        "Mean Anomaly(deg)": 82.44503120355672,
        "RAAN(deg)": 29.999481229922527,
        "Satellite Name": "Starlink Shell 1 137",
        "Satellite Number": 137,
        "Semi-Major Axis(m)": 6931778.249405717,
        "Time(s)": 10
    },
    {
        "Altitude(m)": 559773.9829646053,
        "Argument of Periapsis(deg)": 0.0006971569590224737,
        "Eccentricity": 0.0,
        "Inclination(deg)": 53.0,
        "Latitude(deg)": 52.59901288981402,
        "Longitude(deg)": 8.519452291888543,
        "Mean Anomaly(deg)": 83.07186240711343,
        "RAAN(deg)": 29.998962459845053,
        "Satellite Name": "Starlink Shell 1 137",
        "Satellite Number": 137,
        "Semi-Major Axis(m)": 6931778.249405717,
        "Time(s)": 20
    },
    {
        "Altitude(m)": 559795.6360318065,
        "Argument of Periapsis(deg)": 0.0010457354385337105,
        "Eccentricity": 0.0,
        "Inclination(deg)": 53.0,
        "Latitude(deg)": 52.693848534077304,
        "Longitude(deg)": 9.49660613612392,
        "Mean Anomaly(deg)": 83.69869361067015,
        "RAAN(deg)": 29.99844368976758,
        "Satellite Name": "Starlink Shell 1 137",
        "Satellite Number": 137,
        "Semi-Major Axis(m)": 6931778.249405717,
        "Time(s)": 30
    },
    {
        "Altitude(m)": 559815.2825047398,
        "Argument of Periapsis(deg)": 0.0013943139180449475,
        "Eccentricity": 0.0,
        "Inclination(deg)": 53.0,
        "Latitude(deg)": 52.77990148374983,
        "Longitude(deg)": 10.477974793873527,
        "Mean Anomaly(deg)": 84.32552481422687,
        "RAAN(deg)": 29.99792491969011,
        "Satellite Name": "Starlink Shell 1 137",
        "Satellite Number": 137,
        "Semi-Major Axis(m)": 6931778.249405717,
        "Time(s)": 40
    },
    {
        "Altitude(m)": 559832.9106169122,
        "Argument of Periapsis(deg)": 0.0017428923975561844,
        "Eccentricity": 0.0,
        "Inclination(deg)": 53.0,
        "Latitude(deg)": 52.857110080972944,
        "Longitude(deg)": 11.463174350381417,
        "Mean Anomaly(deg)": 84.95235601778357,
        "RAAN(deg)": 29.99740614961263,
        "Satellite Name": "Starlink Shell 1 137",
        "Satellite Number": 137,
        "Semi-Major Axis(m)": 6931778.249405717,
        "Time(s)": 50
    },
    {
        "Altitude(m)": 559848.5098180518,
        "Argument of Periapsis(deg)": 0.002091470877067421,
        "Eccentricity": 0.0,
        "Inclination(deg)": 53.0,
        "Latitude(deg)": 52.9254185214105,
        "Longitude(deg)": 12.451810012380573,
        "Mean Anomaly(deg)": 85.5791872213403,
        "RAAN(deg)": 29.99688737953516,
        "Satellite Name": "Starlink Shell 1 137",
        "Satellite Number": 137,
        "Semi-Major Axis(m)": 6931778.249405717,
        "Time(s)": 60
    },
    {
        "Altitude(m)": 559862.0707792547,
        "Argument of Periapsis(deg)": 0.0024400493565786582,
        "Eccentricity": 0.0,
        "Inclination(deg)": 53.0,
        "Latitude(deg)": 52.98477704824948,
        "Longitude(deg)": 13.443477610523448,
        "Mean Anomaly(deg)": 86.206018424897,
        "RAAN(deg)": 29.99636860945769,
        "Satellite Name": "Starlink Shell 1 137",
        "Satellite Number": 137,
        "Semi-Major Axis(m)": 6931778.249405717,
        "Time(s)": 70
    },
    {
        "Altitude(m)": 559873.5853975198,
        "Argument of Periapsis(deg)": 0.002788627836089895,
        "Eccentricity": 0.0,
        "Inclination(deg)": 53.0,
        "Latitude(deg)": 53.035142127495654,
        "Longitude(deg)": 14.437763657221955,
        "Mean Anomaly(deg)": 86.83284962845374,
        "RAAN(deg)": 29.995849839380213,
        "Satellite Name": "Starlink Shell 1 137",
        "Satellite Number": 137,
        "Semi-Major Axis(m)": 6931778.249405717,
        "Time(s)": 80
    },
    {
        "Altitude(m)": 559883.0467997015,
        "Argument of Periapsis(deg)": 0.0031372063156011316,
        "Eccentricity": 0.0,
        "Inclination(deg)": 53.0,
        "Latitude(deg)": 53.076476603149864,
        "Longitude(deg)": 15.434246979287039,
        "Mean Anomaly(deg)": 87.45968083201045,
        "RAAN(deg)": 29.995331069302743,
        "Satellite Name": "Starlink Shell 1 137",
        "Satellite Number": 137,
        "Semi-Major Axis(m)": 6931778.249405717,
        "Time(s)": 90
    },
    {
        "Altitude(m)": 559890.4493458511,
        "Argument of Periapsis(deg)": 0.0034857847951123688,
        "Eccentricity": 0.0,
        "Inclination(deg)": 53.0,
        "Latitude(deg)": 53.10874983098371,
        "Longitude(deg)": 16.432500405346012,
        "Mean Anomaly(deg)": 88.08651203556714,
        "RAAN(deg)": 29.994812299225266,
        "Satellite Name": "Starlink Shell 1 137",
        "Satellite Number": 137,
        "Semi-Major Axis(m)": 6931778.249405717,
        "Time(s)": 100
    },
    {
        "Altitude(m)": 559895.7886319485,
        "Argument of Periapsis(deg)": 0.003834363274623606,
        "Eccentricity": 0.0,
        "Inclination(deg)": 53.0,
        "Latitude(deg)": 53.131937789794556,
        "Longitude(deg)": 17.432090987287115,
        "Mean Anomaly(deg)": 88.71334323912387,
        "RAAN(deg)": 29.994293529147797,
        "Satellite Name": "Starlink Shell 1 137",
        "Satellite Number": 137,
        "Semi-Major Axis(m)": 6931778.249405717,
        "Time(s)": 110
    },
    {
        "Altitude(m)": 559899.0614920601,
        "Argument of Periapsis(deg)": 0.004182941754134842,
        "Eccentricity": 0.0,
        "Inclination(deg)": 53.0,
        "Latitude(deg)": 53.1460231692045,
        "Longitude(deg)": 18.432581772985376,
        "Mean Anomaly(deg)": 89.34017444268058,
        "RAAN(deg)": 29.993774759070327,
        "Satellite Name": "Starlink Shell 1 137",
        "Satellite Number": 137,
        "Semi-Major Axis(m)": 6931778.249405717,
        "Time(s)": 120
    },
    {
        "Altitude(m)": 559900.2659998658,
        "Argument of Periapsis(deg)": 0.004531520233646079,
        "Eccentricity": 0.0,
        "Inclination(deg)": 53.0,
        "Latitude(deg)": 53.15099543325149,
        "Longitude(deg)": 19.43353360841847,
        "Mean Anomaly(deg)": 89.9670056462373,
        "RAAN(deg)": 29.99325598899285,
        "Satellite Name": "Starlink Shell 1 137",
        "Satellite Number": 137,
        "Semi-Major Axis(m)": 6931778.249405717,
        "Time(s)": 130
    },
    {
        "Altitude(m)": 559899.4014696036,
        "Argument of Periapsis(deg)": 0.0048800987131573164,
        "Eccentricity": 0.0,
        "Inclination(deg)": 53.0,
        "Latitude(deg)": 53.14685085922361,
        "Longitude(deg)": 20.434505446881516,
        "Mean Anomaly(deg)": 90.59383684979402,
        "RAAN(deg)": 29.99273721891538,
        "Satellite Name": "Starlink Shell 1 137",
        "Satellite Number": 137,
        "Semi-Major Axis(m)": 6931778.249405717,
        "Time(s)": 140
    },
    {
        "Altitude(m)": 559896.4684563794,
        "Argument of Periapsis(deg)": 0.005228677192668553,
        "Eccentricity": 0.0,
        "Inclination(deg)": 53.0,
        "Latitude(deg)": 53.13359255140601,
        "Longitude(deg)": 21.43505618135655,
        "Mean Anomaly(deg)": 91.22066805335074,
        "RAAN(deg)": 29.99221844883791,
        "Satellite Name": "Starlink Shell 1 137",
        "Satellite Number": 137,
        "Semi-Major Axis(m)": 6931778.249405717,
        "Time(s)": 150
    },
    {
        "Altitude(m)": 559891.4687559204,
        "Argument of Periapsis(deg)": 0.00557725567217979,
        "Eccentricity": 0.0,
        "Inclination(deg)": 53.0,
        "Latitude(deg)": 53.11123042961948,
        "Longitude(deg)": 22.434746477329266,
        "Mean Anomaly(deg)": 91.84749925690743,
        "RAAN(deg)": 29.99169967876043,
        "Satellite Name": "Starlink Shell 1 137",
        "Satellite Number": 137,
        "Semi-Major Axis(m)": 6931778.249405717,
        "Time(s)": 160
    },
    {
        "Altitude(m)": 559884.40540367,
        "Argument of Periapsis(deg)": 0.0059258341516910265,
        "Eccentricity": 0.0,
        "Inclination(deg)": 53.0,
        "Latitude(deg)": 53.079781192646934,
        "Longitude(deg)": 23.43313908333941,
        "Mean Anomaly(deg)": 92.47433046046416,
        "RAAN(deg)": 29.99118090868296,
        "Satellite Name": "Starlink Shell 1 137",
        "Satellite Number": 137,
        "Semi-Major Axis(m)": 6931778.249405717,
        "Time(s)": 170
    },
    {
        "Altitude(m)": 559875.2826733342,
        "Argument of Periapsis(deg)": 0.006274412631202263,
        "Eccentricity": 0.0,
        "Inclination(deg)": 53.0,
        "Latitude(deg)": 53.03926825686872,
        "Longitude(deg)": 24.42980063530052,
        "Mean Anomaly(deg)": 93.1011616640209,
        "RAAN(deg)": 29.990662138605487,
        "Satellite Name": "Starlink Shell 1 137",
        "Satellite Number": 137,
        "Semi-Major Axis(m)": 6931778.249405717,
        "Time(s)": 180
    }
]